STARLINK-36230
1 67075U 25298A   26061.16668981 -.01699411  00000+0 -14728+0 0  9994
2 67075  70.0034  33.5733 0003185 274.6831 198.7384 15.00510360  5683
